[{"OBJECT_NAME":"SDA_1664","OBJECT_ID":"2025-230A","EPOCH":"2026-03-09T22:53:15.948384","MEAN_MOTION":13.84453987,"ECCENTRICITY":0.00026169,"INCLINATION":81.2983,"RA_OF_ASC_NODE":303.7448,"ARG_OF_PERICENTER":69.1255,"MEAN_ANOMALY":291.0182,"EPHEMERIS_TYPE":0,"CLASSIFICATION_TYPE":"U","NORAD_CAT_ID":65974,"ELEMENT_SET_NO":999,"REV_AT_EPOCH":2007,"BSTAR":-0.026604975,"MEAN_MOTION_DOT":-0.00029653,"MEAN_MOTION_DDOT":0},{"OBJECT_NAME":"COSMOS 970 DEB","OBJECT_ID":"1977-121AL","EPOCH":"2026-03-09T20:51:32.700672","MEAN_MOTION":13.76617565,"ECCENTRICITY":0.01301359,"INCLINATION":65.8281,"RA_OF_ASC_NODE":342.8074,"ARG_OF_PERICENTER":184.453,"MEAN_ANOMALY":175.5387,"EPHEMERIS_TYPE":0,"CLASSIFICATION_TYPE":"U","NORAD_CAT_ID":10889,"ELEMENT_SET_NO":999,"REV_AT_EPOCH":41126,"BSTAR":0.00043642673,"MEAN_MOTION_DOT":3.75e-6,"MEAN_MOTION_DDOT":0}]
